0 CZ-4B DEB
1 38310U 11079D   13282.22993453  .00001453  00000-0  41963-3 0  1942
2 38310 098.6666 013.6934 0139661 103.8499 287.2993 14.40614349467579
0 CZ-4B DEB
1 38310U 11079D   13288.08145954  .00002071  00000-0  59203-3 0  1962
2 38310 098.6670 019.6218 0139453 086.4982 034.5550 14.40634035468428
0 CZ-4B DEB
1 38310U 11079D   13290.09538316  .00001544  00000-0  44488-3 0  1978
2 38310 098.6665 021.6626 0139357 080.5259 039.3028 14.40641189468716
0 CZ-4B DEB
1 38310U 11079D   13292.10915748  .00001616  00000-0  46525-3 0  1985
2 38310 098.6663 023.7028 0139239 074.5374 043.3539 14.40647432469005
0 CZ-4B DEB
1 38310U 11079D   13294.12308052  .00002123  00000-0  60667-3 0  1991
2 38310 098.6663 025.7431 0139234 068.5279 048.2474 14.40652557469294
